OBJECT_NAME,OBJECT_ID,OBJECT_TYPE,EPOCH,MEAN_MOTION,ECCENTRICITY,INCLINATION,RA_OF_ASC_NODE,ARG_OF_PERICENTER,MEAN_ANOMALY,EPHEMERIS_TYPE,CLASSIFICATION_TYPE,NORAD_CAT_ID,ELEMENT_SET_NO,REV_AT_EPOCH,BSTAR,MEAN_MOTION_DOT,MEAN_MOTION_DDOT,WEATHER,BRIGHTEST,EARTH_RESOURCES,NAVIGATION,SCIENTIFIC,MISCELLANEOUS,COMMUNICATION,active geosynchronous,constellations,active_geosynchronous
STARLINK-6160,2023-061J,Sattelite,2026-02-22T15:35:39.794496,15.02557291,0.0001024,43.0037,279.0691,259.8044,100.2683,0,U,56382,999,15449,0.0002174,2.736e-05,0.0,False,False,False,False,False,False,False,False,starlink,
STARLINK-6166,2023-061K,Sattelite,2026-02-22T22:01:48.925632,15.02535715,0.00012252,43.0045,277.6416,269.4603,90.6099,0,U,56383,999,15453,1.596944e-06,-1.82e-06,0.0,False,False,False,False,False,False,False,False,starlink,
STARLINK-6153,2023-061L,Sattelite,2026-02-22T01:02:58.776576,15.02535936,9.947e-05,43.0036,282.2643,270.7625,89.3103,0,U,56384,999,15440,-0.00013264513,-1.995e-05,0.0,False,False,False,False,False,False,False,False,starlink,
STARLINK-6173,2023-061M,Sattelite,2026-02-22T01:07:48.059328,15.02518913,5.901e-05,43.0018,282.2896,332.1119,27.9692,0,U,56385,999,15440,5.94349e-06,-1.23e-06,0.0,False,False,False,False,False,False,False,False,starlink,
STARLINK-5836,2023-061N,Sattelite,2026-02-22T15:14:55.511808,15.02531217,0.0001466,43.0041,278.9593,261.8354,98.2322,0,U,56386,999,15449,7.0606e-05,7.5e-06,0.0,False,False,False,False,False,False,False,False,starlink,
STARLINK-6178,2023-061P,Sattelite,2026-02-22T21:23:27.666816,15.02534565,4.279e-05,43.0024,277.4419,257.2544,102.825,0,U,56387,999,15453,-1.7120232e-05,-4.35e-06,0.0,False,False,False,False,False,False,False,False,starlink,
STARLINK-6176,2023-061Q,Sattelite,2026-02-22T15:58:05.223072,15.02540106,9.41e-05,43.0029,279.1744,276.3987,83.6748,0,U,56388,999,15449,-6.2417e-05,-1.047e-05,0.0,False,False,False,False,False,False,False,False,starlink,
STARLINK-6145,2023-061R,Sattelite,2026-02-22T21:42:37.949760,15.02525848,0.00013844,43.0039,277.5402,268.7742,91.2941,0,U,56389,999,15453,-8.0055131e-05,-1.285e-05,0.0,False,False,False,False,False,False,False,False,starlink,
STARLINK-6298,2023-061T,Sattelite,2026-02-22T21:33:02.481696,15.02541098,0.00012652,43.0043,277.488,261.8951,98.1748,0,U,56391,999,15453,0.00013881104,1.672e-05,0.0,False,False,False,False,False,False,False,False,starlink,
STARLINK-6301,2023-061U,Sattelite,2026-02-22T15:13:52.521024,15.02537981,0.0001045,43.0058,266.8205,269.1721,90.9002,0,U,56392,999,15463,1.2025e-05,-4.1e-07,0.0,False,False,False,False,False,False,False,False,starlink,
STARLINK-6303,2023-061V,Sattelite,2026-02-22T21:28:14.961504,15.02538393,0.00010425,43.0041,277.4615,260.2128,99.8597,0,U,56393,999,15453,1.8663753e-05,4.9e-07,0.0,False,False,False,False,False,False,False,False,starlink,
STARLINK-6305,2023-061W,Sattelite,2026-02-22T21:20:48.041952,15.02534897,0.00013301,43.0028,265.2914,265.1103,94.9587,0,U,56394,999,15467,2.3164883e-05,1.09e-06,0.0,False,False,False,False,False,False,False,False,starlink,
STARLINK-6273,2023-061X,Sattelite,2026-02-22T15:02:41.001216,15.02538861,0.0001132,43.0025,266.7625,279.2202,80.8512,0,U,56395,999,15534,1.7122e-05,2.8e-07,0.0,False,False,False,False,False,False,False,False,starlink,
STARLINK-6302,2023-061Y,Sattelite,2026-02-22T21:12:48.385440,15.0253803,0.00013024,43.002,265.2527,268.5222,91.5472,0,U,56396,999,14980,1.5109229e-05,1e-08,0.0,False,False,False,False,False,False,False,False,starlink,
STARLINK-6271,2023-061Z,Sattelite,2026-02-22T15:05:52.847232,15.02536854,8.16e-05,43.0023,266.7853,295.8912,64.1846,0,U,56397,999,15463,3.3807e-05,2.53e-06,0.0,False,False,False,False,False,False,False,False,starlink,
STARLINK-6288,2023-061AA,Sattelite,2026-02-22T21:08:01.054464,15.02534299,0.00012913,43.0035,265.228,267.949,92.1205,0,U,56398,999,15467,3.4508549e-05,2.63e-06,0.0,False,False,False,False,False,False,False,False,starlink,
STARLINK-6277,2023-061AB,Sattelite,2026-02-22T00:31:32.719872,15.0253259,0.00010241,43.0029,269.9655,259.7772,100.2955,0,U,56399,999,15454,3.5092668e-05,2.7e-06,0.0,False,False,False,False,False,False,False,False,starlink,
STARLINK-6267,2023-061AC,Sattelite,2026-02-22T06:38:28.061088,15.02537538,0.00011226,43.0041,268.4328,269.7651,90.3062,0,U,56400,999,15458,4.1531672e-05,3.57e-06,0.0,False,False,False,False,False,False,False,False,starlink,
STARLINK-6256,2023-061AD,Sattelite,2026-02-22T22:00:01.999584,15.81191854,0.00114805,42.9928,197.6937,319.377,155.6895,0,U,56401,999,587,0.0010711794,0.00223114,0.0,False,False,False,False,False,False,False,False,starlink,
STARLINK-6284,2023-061AF,Sattelite,2026-02-22T18:30:16.221312,16.06381943,0.0003254,42.9935,231.5364,230.2235,129.8359,0,U,56403,999,15505,0.001523,0.01175657,0.00079303,False,False,False,False,False,False,False,False,starlink,
STARLINK-6287,2023-061AG,Sattelite,2026-02-22T22:22:55.787232,15.02571492,6.775e-05,43.0026,264.7556,266.7609,93.3156,0,U,56404,999,15468,0.00034139294,4.415e-05,0.0,False,False,False,False,False,False,False,False,starlink,
STARLINK-6285,2023-061AH,Sattelite,2026-02-22T22:30:58.396896,15.02528226,0.00011964,43.0027,264.8006,272.8966,87.174,0,U,56405,999,15468,-3.0363038e-05,-6.14e-06,0.0,False,False,False,False,False,False,False,False,starlink,
STARLINK-6283,2023-061AJ,Sattelite,2026-02-22T20:34:27.086880,15.02535867,0.00014818,43.0035,265.0475,268.0262,92.0411,0,U,56406,999,15467,3.6786975e-05,2.93e-06,0.0,False,False,False,False,False,False,False,False,starlink,
STARLINK-6282,2023-061AK,Sattelite,2026-02-22T22:26:09.863232,15.02533708,0.00011925,43.0025,264.7727,265.5254,94.5452,0,U,56407,999,15468,-0.00020728164,-3.002e-05,0.0,False,False,False,False,False,False,False,False,starlink,
