STARLINK-6160           
1 56382U 23061J   26053.64976614  .00002736  00000+0  21740-3 0  9999
2 56382  43.0037 279.0691 0001024 259.8044 100.2683 15.02557291154496
STARLINK-6166           
1 56383U 23061K   26053.91792738 -.00000182  00000+0  15969-5 0  9995
2 56383  43.0045 277.6416 0001225 269.4603  90.6099 15.02535715154531
STARLINK-6153           
1 56384U 23061L   26053.04373584 -.00001995  00000+0 -13265-3 0  9993
2 56384  43.0036 282.2643 0000994 270.7625  89.3103 15.02535936154409
STARLINK-6173           
1 56385U 23061M   26053.04708402 -.00000123  00000+0  59435-5 0  9997
2 56385  43.0018 282.2896 0000590 332.1119  27.9692 15.02518913154400
STARLINK-5836           
1 56386U 23061N   26053.63536472  .00000750  00000+0  70606-4 0  9996
2 56386  43.0041 278.9593 0001466 261.8354  98.2322 15.02531217154497
STARLINK-6178           
1 56387U 23061P   26053.89129244 -.00000435  00000+0 -17120-4 0  9994
2 56387  43.0024 277.4419 0000427 257.2544 102.8250 15.02534565154532
STARLINK-6176           
1 56388U 23061Q   26053.66533823 -.00001047  00000+0 -62417-4 0  9991
2 56388  43.0029 279.1744 0000941 276.3987  83.6748 15.02540106154493
STARLINK-6145           
1 56389U 23061R   26053.90460590 -.00001285  00000+0 -80055-4 0  9991
2 56389  43.0039 277.5402 0001384 268.7742  91.2941 15.02525848154535
STARLINK-6298           
1 56391U 23061T   26053.89794539  .00001672  00000+0  13881-3 0  9995
2 56391  43.0043 277.4880 0001265 261.8951  98.1748 15.02541098154532
STARLINK-6301           
1 56392U 23061U   26053.63463566 -.00000041  00000+0  12025-4 0  9991
2 56392  43.0058 266.8205 0001045 269.1721  90.9002 15.02537981154634
STARLINK-6303           
1 56393U 23061V   26053.89461761  .00000049  00000+0  18664-4 0  9997
2 56393  43.0041 277.4615 0001042 260.2128  99.8597 15.02538393154534
STARLINK-6305           
1 56394U 23061W   26053.88944493  .00000109  00000+0  23165-4 0  9994
2 56394  43.0028 265.2914 0001330 265.1103  94.9587 15.02534897154679
STARLINK-6273           
1 56395U 23061X   26053.62686344  .00000028  00000+0  17122-4 0  9991
2 56395  43.0025 266.7625 0001132 279.2202  80.8512 15.02538861155340
STARLINK-6302           
1 56396U 23061Y   26053.88389335  .00000001  00000+0  15109-4 0  9994
2 56396  43.0020 265.2527 0001302 268.5222  91.5472 15.02538030149809
STARLINK-6271           
1 56397U 23061Z   26053.62908388  .00000253  00000+0  33807-4 0  9996
2 56397  43.0023 266.7853 0000816 295.8912  64.1846 15.02536854154639
STARLINK-6288           
1 56398U 23061AA  26053.88056776  .00000263  00000+0  34509-4 0  9991
2 56398  43.0035 265.2280 0001291 267.9490  92.1205 15.02534299154675
STARLINK-6277           
1 56399U 23061AB  26053.02190648  .00000270  00000+0  35093-4 0  9992
2 56399  43.0029 269.9655 0001024 259.7772 100.2955 15.02532590154543
STARLINK-6267           
1 56400U 23061AC  26053.27671367  .00000357  00000+0  41532-4 0  9995
2 56400  43.0041 268.4328 0001122 269.7651  90.3062 15.02537538154586
STARLINK-6256           
1 56401U 23061AD  26053.91668981  .00223114  00000+0  10712-2 0  9997
2 56401  42.9928 197.6937 0011480 319.3770 155.6895 15.81191854  5870
STARLINK-6284           
1 56403U 23061AF  26053.77102108  .01175657  79303-3  15230-2 0  9992
2 56403  42.9935 231.5364 0003254 230.2235 129.8359 16.06381943155051
STARLINK-6287           
1 56404U 23061AG  26053.93259013  .00004415  00000+0  34139-3 0  9995
2 56404  43.0026 264.7556 0000677 266.7609  93.3156 15.02571492154684
STARLINK-6285           
1 56405U 23061AH  26053.93817589 -.00000614  00000+0 -30363-4 0  9999
2 56405  43.0027 264.8006 0001196 272.8966  87.1740 15.02528226154685
STARLINK-6283           
1 56406U 23061AJ  26053.85725795  .00000293  00000+0  36787-4 0  9995
2 56406  43.0035 265.0475 0001481 268.0262  92.0411 15.02535867154679
STARLINK-6282           
1 56407U 23061AK  26053.93483638 -.00003002  00000+0 -20728-3 0  9992
2 56407  43.0025 264.7727 0001192 265.5254  94.5452 15.02533708154682
